ORBCOMM FM06            
1 25118U 97084G   26201.19216918  .00000419  00000+0  15178-3 0  9991
2 25118  45.0129 253.8168 0001822 248.5114 135.6303 14.47632738499177
ORBCOMM FM04            
1 25159U 98007C   26201.34963839  .00000354  00000+0  16654-3 0  9998
2 25159 107.9632 237.6756 0042017 268.1597  91.4730 14.35789624481354
ORBCOMM FM19            
1 25415U 98046C   26201.41448411  .00000444  00000+0  18635-3 0  9999
2 25415  44.9939  85.6118 0003261  97.1443  72.5780 14.39547277461566
ORBCOMM FM20            
1 25416U 98046D   26201.42775029  .00000336  00000+0  15645-3 0  9997
2 25416  44.9942  93.8392 0000983  35.0867 325.0046 14.38104933461574
ORBCOMM FM27            
1 25481U 98053G   26201.29949648  .00000390  00000+0  17039-3 0  9991
2 25481  45.0035 178.0730 0002179 310.1484  49.9173 14.39190214455006
ORBCOMM FM32            
1 25982U 99065C   26200.89280171  .00000228  00000+0  12325-3 0  9998
2 25982  45.0164  18.4258 0006116 214.2251 145.8203 14.37171692391790
ORBCOMM FM109           
1 40086U 14040A   26201.31438568  .00000043  00000+0  45328-4 0  9998
2 40086  47.0029 294.8609 0001278 339.1660  20.9173 14.58873904639184
ORBCOMM FM110           
1 41182U 15081D   26201.04508271  .00000223  00000+0  83457-4 0  9996
2 41182  47.0003 206.0760 0003756 241.1765 118.8744 14.58922222562429
ORBCOMM FM118           
1 41183U 15081E   26200.39471527  .00000044  00000+0  45596-4 0  9990
2 41183  47.0023 209.4909 0003121 204.5784 155.4953 14.58905829562438
ORBCOMM FM112           
1 41184U 15081F   26201.49434800  .00000287  00000+0  96836-4 0  9998
2 41184  46.9989 112.7400 0003370 351.7758   8.3072 14.58943046563816
ORBCOMM FM113           
1 41185U 15081G   26201.12972480  .00000116  00000+0  60702-4 0  9994
2 41185  47.0005 114.8582 0001955 341.1017  18.9796 14.58884860563740
ORBCOMM FM108           
1 41187U 15081J   26201.50253115  .00000258  00000+0  90697-4 0  9998
2 41187  47.0058  24.6771 0002321 342.8711  17.2097 14.58914791564941
ORBCOMM FM117           
1 41188U 15081K   26201.46831199  .00000247  00000+0  88519-4 0  9996
2 41188  47.0021  23.4646 0002690 350.8894   9.1943 14.58901739564982
ORBCOMM FM116           
1 41189U 15081L   26201.10599410  .00000191  00000+0  76614-4 0  9996
2 41189  47.0020 114.9672 0001715 243.4634 116.6077 14.58910011563741
